[
    {
        "Altitude(m)": 607895.7882666503,
        "Argument of Periapsis(deg)": 0.0,
        "Eccentricity": 0.0,
        "Inclination(deg)": 60.0,
        "Latitude(deg)": 40.99826072138921,
        "Longitude(deg)": -119.9112963504872,
        "Mean Anomaly(deg)": 130.90910000000005,
        "RAAN(deg)": 190.0,
        "Satellite Name": "Test1 844",
        "Satellite Number": 844,
        "Semi-Major Axis(m)": 6980739.136638005,
        "Time(s)": 0
    },
    {
        "Altitude(m)": 607795.1009679522,
        "Argument of Periapsis(deg)": 0.00010418945913296404,
        "Eccentricity": 0.0,
        "Inclination(deg)": 60.0,
        "Latitude(deg)": 40.530584392313656,
        "Longitude(deg)": -119.41470404852822,
        "Mean Anomaly(deg)": 131.5292061454618,
        "RAAN(deg)": 189.99957995086027,
        "Satellite Name": "Test1 844",
        "Satellite Number": 844,
        "Semi-Major Axis(m)": 6980739.136638005,
        "Time(s)": 10
    },
    {
        "Altitude(m)": 607694.5892338692,
        "Argument of Periapsis(deg)": 0.0002083789182659281,
        "Eccentricity": 0.0,
        "Inclination(deg)": 60.0,
        "Latitude(deg)": 40.06039812667306,
        "Longitude(deg)": -118.92555258320682,
        "Mean Anomaly(deg)": 132.14931229092366,
        "RAAN(deg)": 189.99915990172053,
        "Satellite Name": "Test1 844",
        "Satellite Number": 844,
        "Semi-Major Axis(m)": 6980739.136638005,
        "Time(s)": 20
    },
    {
        "Altitude(m)": 607594.3167632002,
        "Argument of Periapsis(deg)": 0.00031256837739889213,
        "Eccentricity": 0.0,
        "Inclination(deg)": 60.0,
        "Latitude(deg)": 39.58777549776515,
        "Longitude(deg)": -118.44365634928997,
        "Mean Anomaly(deg)": 132.76941843638545,
        "RAAN(deg)": 189.9987398525808,
        "Satellite Name": "Test1 844",
        "Satellite Number": 844,
        "Semi-Major Axis(m)": 6980739.136638005,
        "Time(s)": 30
    },
    {
        "Altitude(m)": 607494.3473550712,
        "Argument of Periapsis(deg)": 0.0004167578365318562,
        "Eccentricity": 0.0,
        "Inclination(deg)": 60.0,
        "Latitude(deg)": 39.112787838740466,
        "Longitude(deg)": -117.96883278147251,
        "Mean Anomaly(deg)": 133.38952458184727,
        "RAAN(deg)": 189.99831980344103,
        "Satellite Name": "Test1 844",
        "Satellite Number": 844,
        "Semi-Major Axis(m)": 6980739.136638005,
        "Time(s)": 40
    },
    {
        "Altitude(m)": 607394.7448770712,
        "Argument of Periapsis(deg)": 0.0005209472956648203,
        "Eccentricity": 0.0,
        "Inclination(deg)": 60.0,
        "Latitude(deg)": 38.63550431596341,
        "Longitude(deg)": -117.50090337482054,
        "Mean Anomaly(deg)": 134.00963072730914,
        "RAAN(deg)": 189.9978997543013,
        "Satellite Name": "Test1 844",
        "Satellite Number": 844,
        "Semi-Major Axis(m)": 6980739.136638005,
        "Time(s)": 50
    },
    {
        "Altitude(m)": 607295.5732332364,
        "Argument of Periapsis(deg)": 0.0006251367547977843,
        "Eccentricity": 0.0,
        "Inclination(deg)": 60.0,
        "Latitude(deg)": 38.155992000832285,
        "Longitude(deg)": -117.03969318152518,
        "Mean Anomaly(deg)": 134.62973687277096,
        "RAAN(deg)": 189.99747970516157,
        "Satellite Name": "Test1 844",
        "Satellite Number": 844,
        "Semi-Major Axis(m)": 6980739.136638005,
        "Time(s)": 60
    },
    {
        "Altitude(m)": 607196.8963319851,
        "Argument of Periapsis(deg)": 0.0007293262139307483,
        "Eccentricity": 0.0,
        "Inclination(deg)": 60.0,
        "Latitude(deg)": 37.67431593999116,
        "Longitude(deg)": -116.58503029797211,
        "Mean Anomaly(deg)": 135.2498430182328,
        "RAAN(deg)": 189.99705965602183,
        "Satellite Name": "Test1 844",
        "Satellite Number": 844,
        "Semi-Major Axis(m)": 6980739.136638005,
        "Time(s)": 70
    },
    {
        "Altitude(m)": 607098.7780540024,
        "Argument of Periapsis(deg)": 0.0008335156730637124,
        "Eccentricity": 0.0,
        "Inclination(deg)": 60.0,
        "Latitude(deg)": 37.19053922388325,
        "Longitude(deg)": -116.1367468560445,
        "Mean Anomaly(deg)": 135.86994916369466,
        "RAAN(deg)": 189.99663960688207,
        "Satellite Name": "Test1 844",
        "Satellite Number": 844,
        "Semi-Major Axis(m)": 6980739.136638005,
        "Time(s)": 80
    },
    {
        "Altitude(m)": 607001.2822200815,
        "Argument of Periapsis(deg)": 0.0009377051321966765,
        "Eccentricity": 0.0,
        "Inclination(deg)": 60.0,
        "Latitude(deg)": 36.704723053602315,
        "Longitude(deg)": -115.69467849387657,
        "Mean Anomaly(deg)": 136.4900553091565,
        "RAAN(deg)": 189.99621955774234,
        "Satellite Name": "Test1 844",
        "Satellite Number": 844,
        "Semi-Major Axis(m)": 6980739.136638005,
        "Time(s)": 90
    },
    {
        "Altitude(m)": 606904.472558935,
        "Argument of Periapsis(deg)": 0.0010418945913296407,
        "Eccentricity": 0.0,
        "Inclination(deg)": 60.0,
        "Latitude(deg)": 36.216926806016325,
        "Longitude(deg)": -115.25866381981277,
        "Mean Anomaly(deg)": 137.11016145461832,
        "RAAN(deg)": 189.99579950860257,
        "Satellite Name": "Test1 844",
        "Satellite Number": 844,
        "Semi-Major Axis(m)": 6980739.136638005,
        "Time(s)": 100
    },
    {
        "Altitude(m)": 606808.4126750007,
        "Argument of Periapsis(deg)": 0.0011460840504626045,
        "Eccentricity": 0.0,
        "Inclination(deg)": 60.0,
        "Latitude(deg)": 35.72720809714776,
        "Longitude(deg)": -114.82854538325364,
        "Mean Anomaly(deg)": 137.73026760008014,
        "RAAN(deg)": 189.9953794594628,
        "Satellite Name": "Test1 844",
        "Satellite Number": 844,
        "Semi-Major Axis(m)": 6980739.136638005,
        "Time(s)": 110
    },
    {
        "Altitude(m)": 606713.1660162673,
        "Argument of Periapsis(deg)": 0.0012502735095955685,
        "Eccentricity": 0.0,
        "Inclination(deg)": 60.0,
        "Latitude(deg)": 35.23562284379871,
        "Longitude(deg)": -114.40416912738374,
        "Mean Anomaly(deg)": 138.35037374554196,
        "RAAN(deg)": 189.9949594103231,
        "Satellite Name": "Test1 844",
        "Satellite Number": 844,
        "Semi-Major Axis(m)": 6980739.136638005,
        "Time(s)": 120
    },
    {
        "Altitude(m)": 606618.7958420769,
        "Argument of Periapsis(deg)": 0.0013544629687285324,
        "Eccentricity": 0.0,
        "Inclination(deg)": 60.0,
        "Latitude(deg)": 34.742225323423305,
        "Longitude(deg)": -113.98538383733165,
        "Mean Anomaly(deg)": 138.97047989100378,
        "RAAN(deg)": 189.99453936118337,
        "Satellite Name": "Test1 844",
        "Satellite Number": 844,
        "Semi-Major Axis(m)": 6980739.136638005,
        "Time(s)": 130
    },
    {
        "Altitude(m)": 606525.3651910318,
        "Argument of Periapsis(deg)": 0.0014586524278614966,
        "Eccentricity": 0.0,
        "Inclination(deg)": 60.0,
        "Latitude(deg)": 34.24706823225472,
        "Longitude(deg)": -113.57204209724655,
        "Mean Anomaly(deg)": 139.59058603646565,
        "RAAN(deg)": 189.9941193120436,
        "Satellite Name": "Test1 844",
        "Satellite Number": 844,
        "Semi-Major Axis(m)": 6980739.136638005,
        "Time(s)": 140
    },
    {
        "Altitude(m)": 606432.9368488966,
        "Argument of Periapsis(deg)": 0.0015628418869944607,
        "Eccentricity": 0.0,
        "Inclination(deg)": 60.0,
        "Latitude(deg)": 33.75020274169811,
        "Longitude(deg)": -113.16399973111186,
        "Mean Anomaly(deg)": 140.21069218192744,
        "RAAN(deg)": 189.99369926290385,
        "Satellite Name": "Test1 844",
        "Satellite Number": 844,
        "Semi-Major Axis(m)": 6980739.136638005,
        "Time(s)": 150
    },
    {
        "Altitude(m)": 606341.5733166051,
        "Argument of Periapsis(deg)": 0.0016670313461274247,
        "Eccentricity": 0.0,
        "Inclination(deg)": 60.0,
        "Latitude(deg)": 33.251678553008155,
        "Longitude(deg)": -112.76111524067363,
        "Mean Anomaly(deg)": 140.8307983273893,
        "RAAN(deg)": 189.99327921376414,
        "Satellite Name": "Test1 844",
        "Satellite Number": 844,
        "Semi-Major Axis(m)": 6980739.136638005,
        "Time(s)": 160
    },
    {
        "Altitude(m)": 606251.3367783321,
        "Argument of Periapsis(deg)": 0.0017712208052603888,
        "Eccentricity": 0.0,
        "Inclination(deg)": 60.0,
        "Latitude(deg)": 32.751543950276556,
        "Longitude(deg)": -112.36325075381906,
        "Mean Anomaly(deg)": 141.45090447285114,
        "RAAN(deg)": 189.9928591646244,
        "Satellite Name": "Test1 844",
        "Satellite Number": 844,
        "Semi-Major Axis(m)": 6980739.136638005,
        "Time(s)": 170
    },
    {
        "Altitude(m)": 606162.2890696814,
        "Argument of Periapsis(deg)": 0.001875410264393353,
        "Eccentricity": 0.0,
        "Inclination(deg)": 60.0,
        "Latitude(deg)": 32.24984585175265,
        "Longitude(deg)": -111.97027145807718,
        "Mean Anomaly(deg)": 142.07101061831295,
        "RAAN(deg)": 189.99243911548464,
        "Satellite Name": "Test1 844",
        "Satellite Number": 844,
        "Semi-Major Axis(m)": 6980739.136638005,
        "Time(s)": 180
    },
    {
        "Altitude(m)": 606074.491645972,
        "Argument of Periapsis(deg)": 0.0019795997235263173,
        "Eccentricity": 0.0,
        "Inclination(deg)": 60.0,
        "Latitude(deg)": 31.746629859528966,
        "Longitude(deg)": -111.58204503249101,
        "Mean Anomaly(deg)": 142.6911167637748,
        "RAAN(deg)": 189.99201906634488,
        "Satellite Name": "Test1 844",
        "Satellite Number": 844,
        "Semi-Major Axis(m)": 6980739.136638005,
        "Time(s)": 190
    }
]